KUZGTU 1 (RS47S)        
1 57217U 23091AV  26188.11126718  .00009087  00000+0  31165-3 0  9991
2 57217  97.5050 252.7991 0010951  34.3730 325.8217 15.30345853167426
SONATE-2                
1 59112U 24043Q   26187.38872041  .00044047  00000+0  53835-3 0  9993
2 59112  97.5550 338.9857 0006988 133.3094 226.8746 15.60279237130885
MESAT1                  
1 60209U 24125G   26188.06446918  .00053923  00000+0  53362-3 0  9997
2 60209  97.2265  46.0297 0010913 137.1640 223.0472 15.65621235112677
OOV-CUBE (TUBSAT-30)    
1 60240U 24128F   26187.41788602  .00002062  00000+0  16592-3 0  9994
2 60240  61.9939 158.5121 0042205 138.0070 222.4270 15.02848993109004
COLIBRI-S (RS67S)       
1 61746U 24199M   26188.16377102  .00016925  00000+0  31827-3 0  9997
2 61746  97.2967  62.2078 0007922 191.2830 168.8244 15.48602370140504
HORS 3 (RS81S)          
1 61753U 24199U   26188.15851617  .00028411  00000+0  40190-3 0  9998
2 61753  97.2947  64.4135 0006049 181.9573 178.1659 15.56466294140660
HORS 4 (RS82S)          
1 61754U 24199V   26188.11975903  .00044101  00000+0  50980-3 0  9992
2 61754  97.2887  65.7114 0006049 172.1410 187.9944 15.61742083140751
SIT-2086                
1 61764U 24199AF  26188.09668499  .00029127  00000+0  44143-3 0  9994
2 61764  97.2904  64.7576 0007312 169.6737 190.4669 15.54569200137524
HYPERVIEW 1G (RS66S)    
1 61772U 24199AP  26188.15458067  .00184473  00000+0  86987-3 0  9996
2 61772  97.2820  68.9678 0007759 164.1659 195.9854 15.82547262137821
ALTAIR (RS65S)          
1 61779U 24199AW  26188.16139834  .00005613  00000+0  15504-3 0  9997
2 61779  97.3005  57.3826 0011253 227.6918 132.3374 15.37406233140185
ASRTU-1 (AO-123)        
1 61781U 24199AY  26188.16737556  .00005695  00000+0  16457-3 0  9993
2 61781  97.2976  56.6589 0012235 231.7656 128.2487 15.35973185136994
SAMSAT-IONOSPHERE (RS7*)
1 61784U 24199BB  26188.15610403  .00039163  00000+0  49256-3 0  9996
2 61784  97.2912  64.5353 0008221 187.5000 172.6135 15.59534370140673
RTU MIREA 1 (RS51S)     
1 61785U 24199BC  26188.13338929  .00058059  00000+0  62504-3 0  9991
2 61785  97.2897  65.4532 0008283 181.3530 178.7708 15.63500019137580
TEVEL2-4                
1 63213U 25052D   26188.13050257  .00014545  00000+0  42540-3 0  9993
2 63213  97.3871  84.5615 0004219  68.7261 291.4433 15.35362682 73172
TEVEL2-5                
1 63214U 25052E   26188.15330500  .00012970  00000+0  38186-3 0  9999
2 63214  97.3871  84.5265 0004213  69.6988 290.4708 15.35179600 73174
TEVEL2-6                
1 63215U 25052F   26188.16609047  .00012706  00000+0  37456-3 0  9992
2 63215  97.3876  84.5240 0004075  72.3714 287.7974 15.35145288 73176
TEVEL2-1                
1 63217U 25052H   26187.68057351  .00015226  00000+0  45647-3 0  9996
2 63217  97.3844  83.6383 0004748  76.8203 283.3570 15.34567986 73086
TEVEL2-3                
1 63218U 25052J   26188.13090573  .00013975  00000+0  41826-3 0  9995
2 63218  97.3851  84.1135 0004506  77.8905 282.2843 15.34642806 73152
TEVEL2-2                
1 63219U 25052K   26188.13720451  .00013555  00000+0  40642-3 0  9990
2 63219  97.3844  84.0980 0004751  77.1057 283.0716 15.34592055 73153
OTP-2                   
1 63235U 25052AB  26188.12025705  .00005450  00000+0  22596-3 0  9990
2 63235  97.3841  80.2531 0008297  92.7944 267.4243 15.24265512 72902
TEVEL2-9                
1 63237U 25052AD  26187.68368610  .00013872  00000+0  44317-3 0  9999
2 63237  97.3912  82.9767 0008199  80.0094 280.2072 15.32543225 73015
TEVEL2-7                
1 63238U 25052AE  26187.66312631  .00014189  00000+0  45764-3 0  9999
2 63238  97.3912  82.8636 0008261  80.2460 279.9714 15.32230916 73006
TEVEL2-8                
1 63239U 25052AF  26188.12871407  .00012391  00000+0  40010-3 0  9995
2 63239  97.3910  83.3046 0008212  79.6635 280.5533 15.32228302 73078
INNOSAT 16 (RS92S7)     
1 64878U 25155C   26188.20433359  .00004461  00000+0  17774-3 0  9998
2 64878  97.4577 155.2718 0012370 112.2319 248.0233 15.25678932 83725
GEOSCAN 6 (RS92S6)      
1 64879U 25155D   26188.19008712  .00007887  00000+0  26926-3 0  9992
2 64879  97.4567 156.8251 0009999 104.7352 255.4997 15.30547628 83823
GEOSCAN 1 (RS92S1)      
1 64880U 25155E   26188.18449587  .00008441  00000+0  28238-3 0  9997
2 64880  97.4564 156.9853 0009897 104.6273 255.6066 15.31184406 83831
239ALFEROV (RS61S)      
1 64881U 25155F   26188.19002045  .00010936  00000+0  33949-3 0  9990
2 64881  97.4563 157.6213 0009609 103.9854 256.2458 15.33512770 83874
GEOSCAN 2 (RS92S2)      
1 64890U 25155Q   26188.17472032  .00008195  00000+0  27211-3 0  9994
2 64890  97.4563 157.1358 0009267  94.4448 265.7852 15.31442732 83840
GEOSCAN 5 (RS92S5)      
1 64891U 25155R   26188.17493956  .00010541  00000+0  32422-3 0  9991
2 64891  97.4555 157.7512 0008596 107.8673 252.3508 15.33823748 83889
GEOSCAN 4 (RS92S4)      
1 64892U 25155S   26188.15706816  .00010712  00000+0  32778-3 0  9996
2 64892  97.4559 157.7874 0008574 107.8808 252.3370 15.33985543 83880
