OBJECT_NAME,OBJECT_ID,EPOCH,MEAN_MOTION,ECCENTRICITY,INCLINATION,RA_OF_ASC_NODE,ARG_OF_PERICENTER,MEAN_ANOMALY,EPHEMERIS_TYPE,CLASSIFICATION_TYPE,NORAD_CAT_ID,ELEMENT_SET_NO,REV_AT_EPOCH,BSTAR,MEAN_MOTION_DOT,MEAN_MOTION_DDOT
KUZGTU 1 (RS47S),2023-091AV,2026-07-07T02:40:13.484352,15.30345853,.0010951,97.5050,252.7991,34.3730,325.8217,0,U,57217,999,16742,.31165E-3,.9087E-4,0
SONATE-2,2024-043Q,2026-07-06T09:19:45.443424,15.60279237,.00069887,97.5550,338.9857,133.3094,226.8746,0,U,59112,999,13088,.53834934E-3,.44047E-3,0
MESAT1,2024-125G,2026-07-07T01:32:50.137152,15.65621235,.0010913,97.2265,46.0297,137.1640,223.0472,0,U,60209,999,11267,.53362E-3,.53923E-3,0
OOV-CUBE (TUBSAT-30),2024-128F,2026-07-06T10:01:45.352128,15.02848993,.0042205,61.9939,158.5121,138.0070,222.4270,0,U,60240,999,10900,.16592E-3,.2062E-4,0
COLIBRI-S (RS67S),2024-199M,2026-07-07T03:55:49.816128,15.48602370,.0007922,97.2967,62.2078,191.2830,168.8244,0,U,61746,999,14050,.31827E-3,.16925E-3,0
HORS 3 (RS81S),2024-199U,2026-07-07T03:48:15.797088,15.56466294,.0006049,97.2947,64.4135,181.9573,178.1659,0,U,61753,999,14066,.4019E-3,.28411E-3,0
HORS 4 (RS82S),2024-199V,2026-07-07T02:52:27.180192,15.61742083,.0006049,97.2887,65.7114,172.1410,187.9944,0,U,61754,999,14075,.5098E-3,.44101E-3,0
SIT-2086,2024-199AF,2026-07-07T02:19:13.583136,15.54569200,.0007312,97.2904,64.7576,169.6737,190.4669,0,U,61764,999,13752,.44143E-3,.29127E-3,0
HYPERVIEW 1G (RS66S),2024-199AP,2026-07-07T03:42:35.769888,15.82547262,.0007759,97.2820,68.9678,164.1659,195.9854,0,U,61772,999,13782,.86987E-3,.184473E-2,0
ALTAIR (RS65S),2024-199AW,2026-07-07T03:52:24.816576,15.37406233,.0011253,97.3005,57.3826,227.6918,132.3374,0,U,61779,999,14018,.15504E-3,.5613E-4,0
ASRTU-1 (AO-123),2024-199AY,2026-07-07T04:01:01.248384,15.35973185,.0012235,97.2976,56.6589,231.7656,128.2487,0,U,61781,999,13699,.16457E-3,.5695E-4,0
SAMSAT-IONOSPHERE (RS75S),2024-199BB,2026-07-07T03:44:47.388192,15.59534370,.0008221,97.2912,64.5353,187.5000,172.6135,0,U,61784,999,14067,.49256E-3,.39163E-3,0
RTU MIREA 1 (RS51S),2024-199BC,2026-07-07T03:12:04.834656,15.63500019,.0008283,97.2897,65.4532,181.3530,178.7708,0,U,61785,999,13758,.62504E-3,.58059E-3,0
TEVEL2-4,2025-052D,2026-07-07T03:07:55.422048,15.35362682,.0004219,97.3871,84.5615,68.7261,291.4433,0,U,63213,999,7317,.4254E-3,.14545E-3,0
TEVEL2-5,2025-052E,2026-07-07T03:40:45.552000,15.35179600,.0004213,97.3871,84.5265,69.6988,290.4708,0,U,63214,999,7317,.38186E-3,.1297E-3,0
TEVEL2-6,2025-052F,2026-07-07T03:59:10.216608,15.35145288,.0004075,97.3876,84.5240,72.3714,287.7974,0,U,63215,999,7317,.37456E-3,.12706E-3,0
TEVEL2-1,2025-052H,2026-07-06T16:20:01.551264,15.34567986,.0004748,97.3844,83.6383,76.8203,283.3570,0,U,63217,999,7308,.45647E-3,.15226E-3,0
TEVEL2-3,2025-052J,2026-07-07T03:08:30.255072,15.34642806,.0004506,97.3851,84.1135,77.8905,282.2843,0,U,63218,999,7315,.41826E-3,.13975E-3,0
TEVEL2-2,2025-052K,2026-07-07T03:17:34.469664,15.34592055,.0004751,97.3844,84.0980,77.1057,283.0716,0,U,63219,999,7315,.40642E-3,.13555E-3,0
OTP-2,2025-052AB,2026-07-07T02:53:10.209120,15.24265512,.0008297,97.3841,80.2531,92.7944,267.4243,0,U,63235,999,7290,.22596E-3,.545E-4,0
TEVEL2-9,2025-052AD,2026-07-06T16:24:30.479040,15.32543225,.0008199,97.3912,82.9767,80.0094,280.2072,0,U,63237,999,7301,.44317E-3,.13872E-3,0
TEVEL2-7,2025-052AE,2026-07-06T15:54:54.113184,15.32230916,.0008261,97.3912,82.8636,80.2460,279.9714,0,U,63238,999,7300,.45764E-3,.14189E-3,0
TEVEL2-8,2025-052AF,2026-07-07T03:05:20.895648,15.32228302,.0008212,97.3910,83.3046,79.6635,280.5533,0,U,63239,999,7307,.4001E-3,.12391E-3,0
INNOSAT 16 (RS92S7),2025-155C,2026-07-07T04:54:14.422176,15.25678932,.001237,97.4577,155.2718,112.2319,248.0233,0,U,64878,999,8372,.17774E-3,.4461E-4,0
GEOSCAN 6 (RS92S6),2025-155D,2026-07-07T04:33:43.527168,15.30547628,.0009999,97.4567,156.8251,104.7352,255.4997,0,U,64879,999,8382,.26926E-3,.7887E-4,0
GEOSCAN 1 (RS92S1),2025-155E,2026-07-07T04:25:40.443168,15.31184406,.0009897,97.4564,156.9853,104.6273,255.6066,0,U,64880,999,8383,.28238E-3,.8441E-4,0
239ALFEROV (RS61S),2025-155F,2026-07-07T04:33:37.766880,15.33512770,.0009609,97.4563,157.6213,103.9854,256.2458,0,U,64881,999,8387,.33949E-3,.10936E-3,0
GEOSCAN 2 (RS92S2),2025-155Q,2026-07-07T04:11:35.835648,15.31442732,.0009267,97.4563,157.1358,94.4448,265.7852,0,U,64890,999,8384,.27211E-3,.8195E-4,0
GEOSCAN 5 (RS92S5),2025-155R,2026-07-07T04:11:54.777984,15.33823748,.0008596,97.4555,157.7512,107.8673,252.3508,0,U,64891,999,8388,.32422E-3,.10541E-3,0
GEOSCAN 4 (RS92S4),2025-155S,2026-07-07T03:46:10.689024,15.33985543,.0008574,97.4559,157.7874,107.8808,252.3370,0,U,64892,999,8388,.32778E-3,.10712E-3,0
